CCSDS_OEM_VERS = 1.0
CREATION_DATE  = 2017-05-11T11:03:30
ORIGINATOR     = GMAT USER

META_START
OBJECT_NAME          = MOPSSat_alt_35785_km_RAAN_0_101
OBJECT_ID            = SatId
CENTER_NAME          = Earth
REF_FRAME            = EME2000
TIME_SYSTEM          = UTC
START_TIME           = 2017-01-01T00:00:00.000
USEABLE_START_TIME   = 2017-01-01T00:00:00.000
USEABLE_STOP_TIME    = 2017-01-02T00:00:00.000
STOP_TIME            = 2017-01-02T00:00:00.000
INTERPOLATION        = Lagrange
INTERPOLATION_DEGREE = 7 
META_STOP


                                                                                   

2017-01-01T12:59:10.000  -4.513483278243434e+04  -1.012005013255227e+04  -1.754032560278804e+02   6.759615908003781e-01  -2.705864828325354e+00  -4.719252410169614e-02
2017-01-01T12:59:20.000  -4.512806407758502e+04  -1.014710674023339e+04  -1.758751458242185e+02   6.777793719539434e-01  -2.705456623465353e+00  -4.718543369689272e-02
2017-01-01T12:59:30.000  -4.512127719589754e+04  -1.017415926029775e+04  -1.763469646195025e+02   6.795969598110280e-01  -2.705047311000440e+00  -4.717832399604693e-02
2017-01-01T12:59:40.000  -4.511447213923601e+04  -1.020120768195800e+04  -1.768187122258075e+02   6.814143538539672e-01  -2.704636890946202e+00  -4.717119499943028e-02
2017-01-01T12:59:50.000  -4.510764890953682e+04  -1.022825199415231e+04  -1.772903884504209e+02   6.832315535465490e-01  -2.704225363322331e+00  -4.716404670738559e-02
2017-01-01T13:00:00.000  -4.510080750874576e+04  -1.025529218580498e+04  -1.777619931003887e+02   6.850485583515115e-01  -2.703812728148840e+00  -4.715687912026118e-02
2017-01-01T13:00:10.000  -4.509394793881712e+04  -1.028232824582629e+04  -1.782335259825116e+02   6.868653677305349e-01  -2.703398985445995e+00  -4.714969223840978e-02
2017-01-01T13:00:20.000  -4.508707020178199e+04  -1.030936016285302e+04  -1.787049868988206e+02   6.886819811267968e-01  -2.702984135238442e+00  -4.714248606226019e-02
2017-01-01T13:00:30.000  -4.508017429965710e+04  -1.033638792559808e+04  -1.791763756526749e+02   6.904983979884778e-01  -2.702568177549711e+00  -4.713526059222188e-02
2017-01-01T13:00:40.000  -4.507326023448117e+04  -1.036341152271016e+04  -1.796476920463130e+02   6.923146177593211e-01  -2.702151112404403e+00  -4.712801582872277e-02
2017-01-01T13:00:50.000  -4.506632800815626e+04  -1.039043094339373e+04  -1.801189358916665e+02   6.941306399203072e-01  -2.701732939818625e+00  -4.712075177204340e-02
2017-01-01T13:01:00.000  -4.505937762260669e+04  -1.041744617678735e+04  -1.805901069995187e+02   6.959464639478707e-01  -2.701313659809569e+00  -4.711346842248302e-02
2017-01-01T13:01:10.000  -4.505240907973810e+04  -1.044445721212427e+04  -1.810612051823031e+02   6.977620893246895e-01  -2.700893272393051e+00  -4.710616578031705e-02
2017-01-01T13:01:20.000  -4.504542238154676e+04  -1.047146403830059e+04  -1.815322302465736e+02   6.995775155106705e-01  -2.700471777590103e+00  -4.709884384591138e-02
2017-01-01T13:01:30.000  -4.503841753002974e+04  -1.049846664423169e+04  -1.820031819992202e+02   7.013927419668934e-01  -2.700049175421545e+00  -4.709150261962838e-02
2017-01-01T13:01:40.000  -4.503139452720554e+04  -1.052546501877001e+04  -1.824740602460351e+02   7.032077681500924e-01  -2.699625465909245e+00  -4.708414210184848e-02
2017-01-01T13:01:50.000  -4.502435337510718e+04  -1.055245915073717e+04  -1.829448647922730e+02   7.050225935148046e-01  -2.699200649075690e+00  -4.707676229296291e-02
2017-01-01T13:02:00.000  -4.501729407577719e+04  -1.057944902893882e+04  -1.834155954429102e+02   7.068372175143747e-01  -2.698774724943691e+00  -4.706936319336854e-02
2017-01-01T13:02:10.000  -4.501021663125926e+04  -1.060643464219698e+04  -1.838862520032082e+02   7.086516396031266e-01  -2.698347693535875e+00  -4.706194480345897e-02
2017-01-01T13:02:20.000  -4.500312104359519e+04  -1.063341597936533e+04  -1.843568342789812e+02   7.104658592373916e-01  -2.697919554874506e+00  -4.705450712362148e-02
2017-01-01T13:02:30.000  -4.499600731481541e+04  -1.066039302936074e+04  -1.848273420771450e+02   7.122798758776273e-01  -2.697490308980902e+00  -4.704705015422708e-02
2017-01-01T13:02:40.000  -4.498887544696101e+04  -1.068736578108142e+04  -1.852977752042897e+02   7.140936889829146e-01  -2.697059955876783e+00  -4.703957389565352e-02
2017-01-01T13:02:50.000  -4.498172544198809e+04  -1.071433422376187e+04  -1.857681334728714e+02   7.159072980348359e-01  -2.696628495578480e+00  -4.703207834818503e-02
2017-01-01T13:03:00.000  -4.497455730188326e+04  -1.074129834654268e+04  -1.862384166937077e+02   7.177207025085343e-01  -2.696195928103917e+00  -4.702456351213349e-02
2017-01-01T13:03:10.000  -4.496737102862026e+04  -1.076825813863311e+04  -1.867086246788143e+02   7.195339018836507e-01  -2.695762253469987e+00  -4.701702938779291e-02
2017-01-01T13:03:20.000  -4.496016662432777e+04  -1.079521358868080e+04  -1.871787572304115e+02   7.213468956019330e-01  -2.695327471702681e+00  -4.700947597561526e-02
2017-01-01T13:03:30.000  -4.495294409112173e+04  -1.082216468540215e+04  -1.876488141519184e+02   7.231596831096286e-01  -2.694891582826970e+00  -4.700190327603485e-02
2017-01-01T13:03:40.000  -4.494570343114838e+04  -1.084911141741953e+04  -1.881187952451149e+02   7.249722638465418e-01  -2.694454586869402e+00  -4.699431128951333e-02
2017-01-01T13:03:50.000  -4.493844464647077e+04  -1.087605377369209e+04  -1.885887003176540e+02   7.267846372749962e-01  -2.694016483851256e+00  -4.698670001642079e-02
2017-01-01T13:04:00.000  -4.493116773916211e+04  -1.090299174316018e+04  -1.890585291768611e+02   7.285968028559312e-01  -2.693577273794169e+00  -4.697906945713361e-02
2017-01-01T13:04:10.000  -4.492387271128428e+04  -1.092992531482735e+04  -1.895282816311639e+02   7.304087600544119e-01  -2.693136956718845e+00  -4.697141961201191e-02
2017-01-01T13:04:20.000  -4.491655956489520e+04  -1.095685447772831e+04  -1.899979574895336e+02   7.322205083374816e-01  -2.692695532645494e+00  -4.696375048140716e-02
2017-01-01T13:04:30.000  -4.490922830205381e+04  -1.098377922091415e+04  -1.904675565612267e+02   7.340320471731577e-01  -2.692253001594141e+00  -4.695606206566769e-02
2017-01-01T13:04:40.000  -4.490187892482890e+04  -1.101069953342005e+04  -1.909370786552228e+02   7.358433760282657e-01  -2.691809363585152e+00  -4.694835436514770e-02
2017-01-01T13:04:50.000  -4.489451143530224e+04  -1.103761540425003e+04  -1.914065235799572e+02   7.376544943674113e-01  -2.691364618639422e+00  -4.694062738021056e-02
2017-01-01T13:05:00.000  -4.488712583557839e+04  -1.106452682234548e+04  -1.918758911427738e+02   7.394654016508631e-01  -2.690918766778974e+00  -4.693288111123931e-02
2017-01-01T13:05:10.000  -4.487972212776184e+04  -1.109143377666690e+04  -1.923451811513490e+02   7.412760973400475e-01  -2.690471808025575e+00  -4.692511555861240e-02
2017-01-01T13:05:20.000  -4.487230031405629e+04  -1.111833625583969e+04  -1.928143934075154e+02   7.430865808737109e-01  -2.690023742406733e+00  -4.691733072280813e-02
2017-01-01T13:05:30.000  -4.486486039664472e+04  -1.114523424858343e+04  -1.932835277147477e+02   7.448968516968106e-01  -2.689574569948451e+00  -4.690952660427860e-02
2017-01-01T13:05:40.000  -4.485740237773382e+04  -1.117212774355221e+04  -1.937525838753779e+02   7.467069092497683e-01  -2.689124290677915e+00  -4.690170320349638e-02
2017-01-01T13:05:50.000  -4.484992625938255e+04  -1.119901672995324e+04  -1.942215617013863e+02   7.485167530101087e-01  -2.688672904613138e+00  -4.689386052077483e-02
2017-01-01T13:06:00.000  -4.484243204367294e+04  -1.122590119692980e+04  -1.946904610036368e+02   7.503263824509231e-01  -2.688220411773282e+00  -4.688599855644711e-02
2017-01-01T13:06:10.000  -4.483491973267183e+04  -1.125278113370107e+04  -1.951592815943181e+02   7.521357970502849e-01  -2.687766812176334e+00  -4.687811731082599e-02
2017-01-01T13:06:20.000  -4.482738932852553e+04  -1.127965652921343e+04  -1.956280232808609e+02   7.539449962677868e-01  -2.687312105844831e+00  -4.687021678430332e-02
2017-01-01T13:06:30.000  -4.481984083339016e+04  -1.130652737239959e+04  -1.960966858704566e+02   7.557539795619664e-01  -2.686856292801655e+00  -4.686229697727690e-02
2017-01-01T13:06:40.000  -4.481227424943077e+04  -1.133339365217823e+04  -1.965652691700529e+02   7.575627463902971e-01  -2.686399373069970e+00  -4.685435789014947e-02
2017-01-01T13:06:50.000  -4.480468957889638e+04  -1.136025535719642e+04  -1.970337729818594e+02   7.593712961918216e-01  -2.685941346677769e+00  -4.684639952340758e-02
2017-01-01T13:07:00.000  -4.479708682401975e+04  -1.138711247617687e+04  -1.975021971094055e+02   7.611796284105531e-01  -2.685482213651808e+00  -4.683842187751634e-02
2017-01-01T13:07:10.000  -4.478946598705660e+04  -1.141396499778109e+04  -1.979705413551531e+02   7.629877424862511e-01  -2.685021974019979e+00  -4.683042495296059e-02
2017-01-01T13:07:20.000  -4.478182707011364e+04  -1.144081291121537e+04  -1.984388055310654e+02   7.647956378952279e-01  -2.684560627800932e+00  -4.682240875006455e-02
2017-01-01T13:07:30.000  -4.477417007532048e+04  -1.146765620562470e+04  -1.989069894480370e+02   7.666033141095391e-01  -2.684098175014439e+00  -4.681437326917198e-02
2017-01-01T13:07:40.000  -4.476649500479087e+04  -1.149449487022993e+04  -1.993750929182851e+02   7.684107706062158e-01  -2.683634615679078e+00  -4.680631851060577e-02
2017-01-01T13:07:50.000  -4.475880186071982e+04  -1.152132889397950e+04  -1.998431157492761e+02   7.702180068438234e-01  -2.683169949818073e+00  -4.679824447476964e-02
2017-01-01T13:08:00.000  -4.475109064531230e+04  -1.154815826580819e+04  -2.003110577482378e+02   7.720250222798734e-01  -2.682704177455004e+00  -4.679015116207342e-02
2017-01-01T13:08:10.000  -4.474336136078216e+04  -1.157498297463683e+04  -2.007789187221547e+02   7.738318163708092e-01  -2.682237298613738e+00  -4.678203857293194e-02
